[{"OBJECT_NAME":"STARLINK-34039","OBJECT_ID":"2025-098W","EPOCH":"2026-03-09T21:56:25.128672","MEAN_MOTION":14.98332542,"ECCENTRICITY":0.00023739,"INCLINATION":70.0002,"RA_OF_ASC_NODE":273.9873,"ARG_OF_PERICENTER":268.0885,"MEAN_ANOMALY":92.0002,"EPHEMERIS_TYPE":0,"CLASSIFICATION_TYPE":"U","NORAD_CAT_ID":63946,"ELEMENT_SET_NO":999,"REV_AT_EPOCH":4658,"BSTAR":0.0001503088,"MEAN_MOTION_DOT":1.701e-5,"MEAN_MOTION_DDOT":0},{"OBJECT_NAME":"CZ-2C DEB","OBJECT_ID":"2014-066E","EPOCH":"2026-03-09T21:55:34.712544","MEAN_MOTION":14.96320405,"ECCENTRICITY":0.00459749,"INCLINATION":97.9301,"RA_OF_ASC_NODE":44.7594,"ARG_OF_PERICENTER":158.4857,"MEAN_ANOMALY":201.831,"EPHEMERIS_TYPE":0,"CLASSIFICATION_TYPE":"U","NORAD_CAT_ID":40290,"ELEMENT_SET_NO":999,"REV_AT_EPOCH":60512,"BSTAR":0.0018751551,"MEAN_MOTION_DOT":0.00021654,"MEAN_MOTION_DDOT":0}]
